Orbit 1
Satellite Number: 99999
Line 1: 1 99999U 20042A   26027.13434208  .00000000  00000-0  10000-4 0  9990
Line 2: 2 99999  97.6039 244.5555 0002661  63.2353 279.1176 15.06637546  1005
Keplerian Elements:
  Semi-major axis (a): 6921.610645 km
  Eccentricity (e): 0.000266
  Inclination (i): 97.603900 deg
  Argument of Perigee (ω): 63.235300 deg
  RAAN (Ω): 244.555500 deg
--------------------------------------------------
Orbit 2
Satellite Number: 64842
Line 1: 1 64842U 25152A   26027.15612181  .00005221  00000-0  36576-3 0  9991
Line 2: 2 64842  97.6027 244.5041 0002332  81.0315 279.1176 15.05653275 29165
Keplerian Elements:
  Semi-major axis (a): 6924.629404 km
  Eccentricity (e): 0.000233
  Inclination (i): 97.602700 deg
  Argument of Perigee (ω): 81.031500 deg
  RAAN (Ω): 244.504100 deg
--------------------------------------------------
Orbit 3
Satellite Number: 64860
Line 1: 1 64860U 25152U   26027.15058631  .00004531  00000-0  31797-3 0  9998
Line 2: 2 64860  97.6014 244.5281 0002306  70.7975 289.3501 15.05653619 29162
Keplerian Elements:
  Semi-major axis (a): 6924.628292 km
  Eccentricity (e): 0.000231
  Inclination (i): 97.601400 deg
  Argument of Perigee (ω): 70.797500 deg
  RAAN (Ω): 244.528100 deg
--------------------------------------------------
Orbit 4
Satellite Number: 64847
Line 1: 1 64847U 25152F   26027.12289862  .00007864  00000-0  54854-3 0  9993
Line 2: 2 64847  97.6032 244.5520 0002414  98.8218 261.3283 15.05655934 29163
Keplerian Elements:
  Semi-major axis (a): 6924.621266 km
  Eccentricity (e): 0.000241
  Inclination (i): 97.603200 deg
  Argument of Perigee (ω): 98.821800 deg
  RAAN (Ω): 244.552000 deg
--------------------------------------------------
